{
  "norad_id": 56692,
  "name": "STARLINK-30036",
  "history": [
    {
      "epoch": "2026-03-28T14:47:14.180640Z",
      "apogee_km": 560.2911868571191,
      "perigee_km": 557.8770339107059,
      "latitude_deg": -6.557541582145017e-05,
      "longitude_deg": 124.07061656048576,
      "height_km": 558.875097008593,
      "semi_major_axis_km": 6937.221110383913,
      "eccentricity": 0.000174,
      "inclination_deg": 43.0043,
      "raan_deg": 171.9138,
      "arg_perigee_deg": 269.4755,
      "mean_anomaly_deg": 90.5887,
      "mean_motion_rev_day": 15.02534513
    }
  ]
}